{
    "links": {
        "self": "http://www.neowsapp.com/rest/v1/neo/3698495?api_key=iIulBulltgU6a56xZRHN4H3l9WmuAYTsLGpBGhQ2"
    },
    "id": "3698495",
    "neo_reference_id": "3698495",
    "name": "(2014 HV196)",
    "designation": "2014 HV196",
    "nasa_jpl_url": "http://ssd.jpl.nasa.gov/sbdb.cgi?sstr=3698495",
    "absolute_magnitude_h": 26.7,
    "estimated_diameter": {
        "kilometers": {
            "estimated_diameter_min": 0.0121494041,
            "estimated_diameter_max": 0.0271668934
        },
        "meters": {
            "estimated_diameter_min": 12.14940408,
            "estimated_diameter_max": 27.1668934089
        },
        "miles": {
            "estimated_diameter_min": 0.0075492874,
            "estimated_diameter_max": 0.0168807197
        },
        "feet": {
            "estimated_diameter_min": 39.8602508817,
            "estimated_diameter_max": 89.1302305717
        }
    },
    "is_potentially_hazardous_asteroid": false,
    "close_approach_data": [
        {
            "close_approach_date": "2014-05-03",
            "close_approach_date_full": "2014-May-03 11:54",
            "epoch_date_close_approach": 1399118040000,
            "relative_velocity": {
                "kilometers_per_second": "4.9075097348",
                "kilometers_per_hour": "17667.0350453687",
                "miles_per_hour": "10977.6085258292"
            },
            "miss_distance": {
                "astronomical": "0.0998133344",
                "lunar": "38.8273870816",
                "kilometers": "14931862.223837728",
                "miles": "9278228.9486995264"
            },
            "orbiting_body": "Earth"
        }
    ],
    "orbital_data": {
        "orbit_id": "3",
        "orbit_determination_date": "2017-04-06 08:41:03",
        "first_observation_date": "2014-04-23",
        "last_observation_date": "2014-04-26",
        "data_arc_in_days": 3,
        "observations_used": 24,
        "orbit_uncertainty": "9",
        "minimum_orbit_intersection": ".0986343",
        "jupiter_tisserand_invariant": "5.277",
        "epoch_osculation": "2456772.5",
        "eccentricity": ".09435945821606095",
        "semi_major_axis": "1.201018755052333",
        "inclination": "9.26431683575627",
        "ascending_node_longitude": "212.401610960836",
        "orbital_period": "480.7542264508509",
        "perihelion_distance": "1.087691276018267",
        "perihelion_argument": "42.31209549610406",
        "aphelion_distance": "1.314346234086399",
        "perihelion_time": "2456817.172720331869",
        "mean_anomaly": "326.5480230133412",
        "mean_motion": ".7488233700152482",
        "equinox": "J2000",
        "orbit_class": {
            "orbit_class_type": "AMO",
            "orbit_class_description": "Near-Earth asteroid orbits similar to that of 1221 Amor",
            "orbit_class_range": "1.017 AU < q (perihelion) < 1.3 AU"
        }
    },
    "is_sentry_object": false
}